ASTROCAST-0403          
1 55111U 23001DG  26068.82333059  .00013959  00000+0  51317-3 0  9990
2 55111  97.5604 161.3228 0004771 338.0704  22.0330 15.28004949129377
STARLINK-31329          
1 59169U 24044T   26068.49755230 -.00001185  00000+0 -33549-4 0  9995
2 59169  43.0068 108.3313 0001714 285.7060  74.3603 15.27578170113532
